#dP2018 12 31  0  0  0.00000000      96 __u+U ITR00 FIT  IAC
## 2034  86400.00000000   900.00000000 58483 0.0000000000000
+   97   C02C03C04C05C06C07C08C09C10C11C12C13C14C30E01E02E03
+        E04E05E07E08E09E11E12E13E14E15E18E19E21E24E25E26E27
+        E30E31E33E36G01G02G03G04G05G06G07G08G09G10G11G12G13
+        G14G15G16G17G18G19G20G21G22G23G24G25G26G27G28G29G30
+        G31G32J01J02J03J07R01R02R03R04R05R07R08R09R10R11R13
+        R14R15R16R17R18R19R20R21R22R23R24R26  0  0  0  0  0
++        12 12 12 12  9  9  9  8  9  8  8  8  8 14  5  5  5
++         5  5  5  5  5  4  5  6  5  6  5  5  5  5  4  5  5
++         5  5  7  6  3  3  3  4  3  3  3  3  3  3  3  3  3
++         3  3  3  3  3  3  3  3  3  3  3  3  3  3  3  3  3
++         3  3 10  9  9 16  5  5  5  5  5  6  6  5  5  5  5
++         5  5  0  5  5  5  5  5  5  5  6  8  0  0  0  0  0
%c M  cc GPS ccc cccc cccc cccc cccc ccccc ccccc ccccc ccccc
%c cc cc ccc ccc cccc cccc cccc cccc ccccc ccccc ccccc ccccc
%f  0.0000000  0.000000000  0.00000000000  0.000000000000000
%f  0.0000000  0.000000000  0.00000000000  0.000000000000000
%i    0    0    0    0      0      0      0      0         0
%i    0    0    0    0      0      0      0      0         0
/* INFORMATION & ANALYSIS CENTER (IAC) OF MCC   (RAPID DATA)
/* S/V CLOCKS ARE ALIGNED TO GPS & GLONASS TIME RESPECTIVELY
/* USING THE BROADCAST EPHEMERIS                            
/* PCV:IGS14_2029 OL/AL:FES2004  NONE     YN ORB:CoN CLK:CoN
*  2018 12 31 10 15  0.00000000
PC02   4340.651155  41903.892114  -1078.107087   -210.743091
PC03 -14745.353709  39465.540338   -141.826415   -113.089151
PC04 -39661.988608  14386.425269     64.458978   -233.543246
PC05  21897.277288  35996.110520  -1207.336972    -13.500740
PC06 -18821.998454  37445.773408  -2135.988151    216.742042
PC07  -8623.333079  27469.791462  31054.048973    224.479565
PC08 -20505.530058  20937.675362 -30347.637088     77.058278
PC09  -9472.747367  38898.418971  12856.897657    410.986104
PC10   5925.693857  35125.172996  22979.483828   -367.707467
PC11  21564.836413 -17634.704229    879.104548   -113.586196
PC12  17702.774981   3765.230678 -21144.767555    312.782865
PC13  -7183.850393  23775.032004 -34061.956973   -458.617297
PC14  15228.790215  -5804.782873  22708.212555    599.623328
PC30 -23690.293808  12250.910694   8189.966907     44.513634
PE01  18528.979326  22385.512182   5629.780580   -510.695933
PE02 -18569.477589 -22375.066584  -5577.482592     41.379288
PE03  -7693.205211 -22423.378212 -17723.064947   -116.887209
PE04  16935.490176   2906.774607  24099.386703   -190.277338
PE05   6127.327063 -28944.402243   -913.101499    133.181486
PE07 -16310.803067  18504.491469 -16368.782053   -103.781059
PE08 -16842.307112  -2635.103949 -24202.498570   6432.714191
PE09  16053.078425 -18647.865829  16442.388574   6572.311187
PE11  25540.567650 -13095.790903   7263.837383   5718.525708
PE12  27113.060534   -192.204178 -11879.003536   5837.802918
PE13 -25559.969445  13119.805886  -7114.017357    381.157171
PE14    581.478172  24383.071778 -18917.745263   6466.876902
PE15 -27231.352165    623.625176  11603.262973    924.247468
PE18  10255.671833 -22691.463891   7783.713735   5641.661603
PE19   6346.212398  23792.963432  16419.079589     -9.484097
PE21   1637.505127  20561.872345  21230.360574   -512.082729
PE24  15671.388466  -7069.208613 -24098.681816   6310.433400
PE25  -1609.957923 -20545.086905 -21240.683386   1937.930088
PE26  -9172.880088  18050.195005 -21585.718944   5073.568845
PE27 -16039.150808   6596.047347  23995.108739    559.272619
PE30 -24199.092466 -10933.658572  13087.873796   5226.363750
PE31  24278.063681  11224.360815 -12670.252670    944.687318
PE33  12991.111267  12267.781473 -23586.090792    847.840431
PE36   8898.745050 -17994.176447  21763.818919    765.207370
PG01  14970.775131  13370.105780 -17717.105551   -137.578801
PG02   8889.184732 -14630.981451  20852.625592   -100.483997
PG03  13365.710380  22743.536341   3357.553840    173.873308
PG04 -13000.217285  22793.574029    588.953939   -120.994145
PG05    463.777320 -22093.605357  14464.469230      0.626317
PG06  21495.964556  -7637.804819  13661.743960    306.111037
PG07  25274.051333   6752.089521   6082.356630     60.477559
PG08  -2515.935562  21850.291928 -14708.435259   -127.451217
PG09  15320.968955   4279.939616  21224.099394    477.246772
PG10 -15514.017288   2168.905353 -21425.826411    143.335415
PG11   9260.116936  14084.197755 -21043.317684   -681.702208
PG12 -10081.801368 -24673.651171    415.715664    280.168634
PG13  10756.181856 -22265.332085  -9770.061296    -79.862172
PG14 -18771.677244  17997.046749  -4607.196128    -93.872208
PG15  -2451.542657 -20726.842426 -16451.702644   -334.148424
PG16  -2300.151923  21672.138149  14707.434337     -9.865585
PG17  19770.310755 -11297.570936 -13173.310448    -11.201833
PG18   4118.468608  15538.332658 -21639.154070     11.084041
PG19  19456.072075 -17454.266976  -5322.982053   -368.279701
PG20 -19338.912676  -6989.451387 -16998.110827    520.586808
PG21 -26014.701212  -3742.763017   4263.558813   -277.643862
PG22  10019.905494  24236.377563  -4112.330666   -611.743543
PG23   8948.813168  14003.328107  20949.749336   -201.952134
PG24 -10408.670402 -14754.524425 -19720.237324    -60.197933
PG25 -16364.760108 -18291.400488  10280.489563   -699.118497
PG26  -8653.594312  14785.280624  20247.083860     83.147294
PG27 -10782.827908  23284.204317  -6347.095906    -41.059904
PG28  15267.408646    836.965242 -21086.578072    760.438186
PG29 -12405.179656  -7933.601355  22083.738837    303.667858
PG30  26092.399016   -612.034570  -5378.024776    -28.344794
PG31 -19782.124579   8823.350457  15676.540011     69.057429
PG32 -19373.608868  13655.431297 -11844.808569   -295.617132
PJ01 -18295.965191  28176.178756 -20890.135903   -226.827978
PJ02 -27312.078635  20268.964439  29661.915833     -0.826200
PJ03 -31395.939878  27787.478269   8256.058568      2.897695
PJ07 -25378.347468  33667.478538    -13.115587    507.773033
PR01  11015.298033  -4146.404684  22622.722193     37.236290
PR02   5940.934719 -22291.555530  10972.001165    347.061282
PR03  -2347.509124 -24574.963100  -6480.581303    153.181280
PR04  -9393.518330 -12047.831417 -20424.363749    289.503522
PR05 -10649.986858   6517.143978 -22237.410664     18.909626
PR07   2598.873506  24367.084915   7040.888497    -54.888364
PR08   9211.941816  12737.651142  20129.862150     19.766995
PR09  -3816.158881  10687.300080  22862.900136     46.543551
PR10  11689.830104  16161.519701  15929.301606     38.678872
PR11  21901.326361  13068.867945  -1122.430938    -51.971875
PR13   4648.915594  -9869.018228 -23072.836052    -18.475917
PR14 -11655.469442 -16195.311504 -15873.413055     34.481785
PR15 -21702.237365 -13410.544066    304.656358     99.073761
PR16      0.000000      0.000000      0.000000 999999.999999
PR17   1514.715391 -12385.481828  22256.184503    192.325744
PR18 -14517.914178  -2996.274594  20762.175714     28.943961
PR19 -23037.590635   7622.833615   7877.699594    -62.286046
PR20 -17714.290586  14506.041511 -11185.536216   -364.090337
PR21  -1084.876367  12132.070776 -22409.228415    -22.927871
PR22  16470.194402   1297.227501 -19470.873327    -64.369312
PR23  23035.349769 -10482.156839  -3184.841932    200.258796
PR24  16476.355430 -14989.581022  12422.916244   -175.521018
PR26 -18675.098618  14636.329573  -9382.817435     13.245619
EOF
